{"type": "FeatureCollection", "features": [ {"type": "Feature", "properties": {"norad_id": 65304, "name": "DRAGON CRS-33", "group": "stations", "lat": -37.85893254236629, "lon": 33.95416575619809, "alt_km": 419.06270774710356, "timestamp": "2025-12-26T23:26:40.955588+00:00", "meta": {"OBJECT_NAME": "DRAGON CRS-33", "OBJECT_ID": "2025-186A", "EPOCH": "2025-12-26T12:50:01.193856", "MEAN_MOTION": 15.49844261, "ECCENTRICITY": 0.00032307, "INCLINATION": 51.632, "RA_OF_ASC_NODE": 74.1581, "ARG_OF_PERICENTER": 305.5588, "MEAN_ANOMALY": 54.5099, "EPHEMERIS_TYPE": 0, "CLASSIFICATION_TYPE": "U", "NORAD_CAT_ID": 65304, "ELEMENT_SET_NO": 999, "REV_AT_EPOCH": 11, "BSTAR": 0.00025381537, "MEAN_MOTION_DOT": 0.00013978, "MEAN_MOTION_DDOT": 0}, "tle": {"line1": "1 65304U 25186A   25360.53473604  .00013978  00000+0  25382-3 0  9998", "line2": "2 65304  51.6320  74.1581 0003230 305.5588  54.5099 15.49844261   113"}}, "geometry": {"type": "Point", "coordinates": [33.95416575619809, -37.85893254236629]}}, {"type": "Feature", "properties": {"norad_id": 65586, "name": "PROGRESS-MS 32", "group": "stations", "lat": -37.858932143596704, "lon": 33.954166398897456, "alt_km": 419.06270772839434, "timestamp": "2025-12-26T23:26:40.955598+00:00", "meta": {"OBJECT_NAME": "PROGRESS-MS 32", "OBJECT_ID": "2025-204A", "EPOCH": "2025-12-26T12:50:01.193856", "MEAN_MOTION": 15.49844261, "ECCENTRICITY": 0.00032307, "INCLINATION": 51.632, "RA_OF_ASC_NODE": 74.1581, "ARG_OF_PERICENTER": 305.5588, "MEAN_ANOMALY": 54.5099, "EPHEMERIS_TYPE": 0, "CLASSIFICATION_TYPE": "U", "NORAD_CAT_ID": 65586, "ELEMENT_SET_NO": 999, "REV_AT_EPOCH": 27, "BSTAR": 0.00025381537, "MEAN_MOTION_DOT": 0.00013978, "MEAN_MOTION_DDOT": 0}, "tle": {"line1": "1 65586U 25204A   25360.53473604  .00013978  00000+0  25382-3 0  9991", "line2": "2 65586  51.6320  74.1581 0003230 305.5588  54.5099 15.49844261   272"}}, "geometry": {"type": "Point", "coordinates": [33.954166398897456, -37.858932143596704]}}, {"type": "Feature", "properties": {"norad_id": 65616, "name": "CYGNUS NG-23", "group": "stations", "lat": -37.85893178470348, "lon": 33.95416697732784, "alt_km": 419.06270771155505, "timestamp": "2025-12-26T23:26:40.955607+00:00", "meta": {"OBJECT_NAME": "CYGNUS NG-23", "OBJECT_ID": "2025-208A", "EPOCH": "2025-12-26T12:50:01.193856", "MEAN_MOTION": 15.49844261, "ECCENTRICITY": 0.00032307, "INCLINATION": 51.632, "RA_OF_ASC_NODE": 74.1581, "ARG_OF_PERICENTER": 305.5588, "MEAN_ANOMALY": 54.5099, "EPHEMERIS_TYPE": 0, "CLASSIFICATION_TYPE": "U", "NORAD_CAT_ID": 65616, "ELEMENT_SET_NO": 999, "REV_AT_EPOCH": 22, "BSTAR": 0.00025381537, "MEAN_MOTION_DOT": 0.00013978, "MEAN_MOTION_DDOT": 0}, "tle": {"line1": "1 65616U 25208A   25360.53473604  .00013978  00000+0  25382-3 0  9999", "line2": "2 65616  51.6320  74.1581 0003230 305.5588  54.5099 15.49844261   221"}}, "geometry": {"type": "Point", "coordinates": [33.95416697732784, -37.85893178470348]}}, {"type": "Feature", "properties": {"norad_id": 65729, "name": "DRAGONFLY", "group": "stations", "lat": 46.362925580484195, "lon": -173.61598887918032, "alt_km": 334.6438008042596, "timestamp": "2025-12-26T23:26:40.955618+00:00", "meta": {"OBJECT_NAME": "DRAGONFLY", "OBJECT_ID": "1998-067XH", "EPOCH": "2025-12-26T10:48:09.332064", "MEAN_MOTION": 15.76805342, "ECCENTRICITY": 0.0008231, "INCLINATION": 51.6248, "RA_OF_ASC_NODE": 65.3139, "ARG_OF_PERICENTER": 358.0707, "MEAN_ANOMALY": 2.026, "EPHEMERIS_TYPE": 0, "CLASSIFICATION_TYPE": "U", "NORAD_CAT_ID": 65729, "ELEMENT_SET_NO": 999, "REV_AT_EPOCH": 1532, "BSTAR": 0.0012148, "MEAN_MOTION_DOT": 0.00204396, "MEAN_MOTION_DDOT": 0}, "tle": {"line1": "1 65729U 98067XH  25360.45010801  .00204396  00000+0  12148-2 0  9995", "line2": "2 65729  51.6248  65.3139 0008231 358.0707   2.0260 15.76805342 15320"}}, "geometry": {"type": "Point", "coordinates": [-173.61598887918032, 46.362925580484195]}}, {"type": "Feature", "properties": {"norad_id": 65731, "name": "1998-067XK", "group": "stations", "lat": 40.21109663361376, "lon": -157.20239511251847, "alt_km": 360.6602999096085, "timestamp": "2025-12-26T23:26:40.955630+00:00", "meta": {"OBJECT_NAME": "1998-067XK", "OBJECT_ID": "1998-067XK", "EPOCH": "2025-12-26T10:41:00.043296", "MEAN_MOTION": 15.68417906, "ECCENTRICITY": 0.000501, "INCLINATION": 51.6285, "RA_OF_ASC_NODE": 67.5635, "ARG_OF_PERICENTER": 330.6256, "MEAN_ANOMALY": 29.4459, "EPHEMERIS_TYPE": 0, "CLASSIFICATION_TYPE": "U", "NORAD_CAT_ID": 65731, "ELEMENT_SET_NO": 999, "REV_AT_EPOCH": 1529, "BSTAR": 0.0008587, "MEAN_MOTION_DOT": 0.00099452, "MEAN_MOTION_DDOT": 0}, "tle": {"line1": "1 65731U 98067XK  25360.44513939  .00099452  00000+0  85870-3 0  9995", "line2": "2 65731  51.6285  67.5635 0005010 330.6256  29.4459 15.68417906 15291"}}, "geometry": {"type": "Point", "coordinates": [-157.20239511251847, 40.21109663361376]}}, {"type": "Feature", "properties": {"norad_id": 65732, "name": "RSP-03", "group": "stations", "lat": -51.569274380683915, "lon": -29.14237981342387, "alt_km": 355.39694648567456, "timestamp": "2025-12-26T23:26:40.955639+00:00", "meta": {"OBJECT_NAME": "RSP-03", "OBJECT_ID": "1998-067XL", "EPOCH": "2025-12-26T11:37:50.673792", "MEAN_MOTION": 15.72242351, "ECCENTRICITY": 0.0006063, "INCLINATION": 51.6261, "RA_OF_ASC_NODE": 66.3111, "ARG_OF_PERICENTER": 338.1349, "MEAN_ANOMALY": 21.939, "EPHEMERIS_TYPE": 0, "CLASSIFICATION_TYPE": "U", "NORAD_CAT_ID": 65732, "ELEMENT_SET_NO": 999, "REV_AT_EPOCH": 1532, "BSTAR": 0.0010599, "MEAN_MOTION_DOT": 0.00145049, "MEAN_MOTION_DDOT": 0}, "tle": {"line1": "1 65732U 98067XL  25360.48461428  .00145049  00000+0  10599-2 0  9994", "line2": "2 65732  51.6261  66.3111 0006063 338.1349  21.9390 15.72242351 15327"}}, "geometry": {"type": "Point", "coordinates": [-29.14237981342387, -51.569274380683915]}}, {"type": "Feature", "properties": {"norad_id": 65733, "name": "GHS-01", "group": "stations", "lat": -26.377669520463115, "lon": -95.21956229402186, "alt_km": 334.796468772518, "timestamp": "2025-12-26T23:26:40.955649+00:00", "meta": {"OBJECT_NAME": "GHS-01", "OBJECT_ID": "1998-067XM", "EPOCH": "2025-12-26T11:55:32.712960", "MEAN_MOTION": 15.81335345, "ECCENTRICITY": 0.0009525, "INCLINATION": 51.628, "RA_OF_ASC_NODE": 64.1357, "ARG_OF_PERICENTER": 2.9798, "MEAN_ANOMALY": 357.1259, "EPHEMERIS_TYPE": 0, "CLASSIFICATION_TYPE": "U", "NORAD_CAT_ID": 65733, "ELEMENT_SET_NO": 999, "REV_AT_EPOCH": 1535, "BSTAR": 0.0013992, "MEAN_MOTION_DOT": 0.00292398, "MEAN_MOTION_DDOT": 0}, "tle": {"line1": "1 65733U 98067XM  25360.49690640  .00292398  00000+0  13992-2 0  9996", "line2": "2 65733  51.6280  64.1357 0009525   2.9798 357.1259 15.81335345 15354"}}, "geometry": {"type": "Point", "coordinates": [-95.21956229402186, -26.377669520463115]}}, {"type": "Feature", "properties": {"norad_id": 65941, "name": "YOTSUBA-KULOVER", "group": "stations", "lat": -50.86916427814559, "lon": -34.79913774829912, "alt_km": 388.6907098934944, "timestamp": "2025-12-26T23:26:40.955659+00:00", "meta": {"OBJECT_NAME": "YOTSUBA-KULOVER", "OBJECT_ID": "1998-067XN", "EPOCH": "2025-12-26T14:38:51.631584", "MEAN_MOTION": 15.61332207, "ECCENTRICITY": 0.00025713, "INCLINATION": 51.6289, "RA_OF_ASC_NODE": 70.1673, "ARG_OF_PERICENTER": 5.6559, "MEAN_ANOMALY": 354.4463, "EPHEMERIS_TYPE": 0, "CLASSIFICATION_TYPE": "U", "NORAD_CAT_ID": 65941, "ELEMENT_SET_NO": 999, "REV_AT_EPOCH": 1202, "BSTAR": 0.00084261791, "MEAN_MOTION_DOT": 0.0007325, "MEAN_MOTION_DDOT": 0}, "tle": {"line1": "1 65941U 98067XN  25360.61031981  .00073250  00000+0  84262-3 0  9991", "line2": "2 65941  51.6289  70.1673 0002571   5.6559 354.4463 15.61332207 12021"}}, "geometry": {"type": "Point", "coordinates": [-34.79913774829912, -50.86916427814559]}}, {"type": "Feature", "properties": {"norad_id": 65942, "name": "BOTAN", "group": "stations", "lat": 48.77735638128009, "lon": 131.951192694376, "alt_km": 363.6795604333611, "timestamp": "2025-12-26T23:26:40.955670+00:00", "meta": {"OBJECT_NAME": "BOTAN", "OBJECT_ID": "1998-067XP", "EPOCH": "2025-12-26T10:52:42.060576", "MEAN_MOTION": 15.65808737, "ECCENTRICITY": 0.00035646, "INCLINATION": 51.6278, "RA_OF_ASC_NODE": 69.8667, "ARG_OF_PERICENTER": 346.4862, "MEAN_ANOMALY": 13.6037, "EPHEMERIS_TYPE": 0, "CLASSIFICATION_TYPE": "U", "NORAD_CAT_ID": 65942, "ELEMENT_SET_NO": 999, "REV_AT_EPOCH": 1201, "BSTAR": 0.0010505339, "MEAN_MOTION_DOT": 0.0010964, "MEAN_MOTION_DDOT": 0}, "tle": {"line1": "1 65942U 98067XP  25360.45326459  .00109640  00000+0  10505-2 0  9992", "line2": "2 65942  51.6278  69.8667 0003564 346.4862  13.6037 15.65808737 12014"}}, "geometry": {"type": "Point", "coordinates": [131.951192694376, 48.77735638128009]}}, {"type": "Feature", "properties": {"norad_id": 65943, "name": "E-KAGAKU-1", "group": "stations", "lat": -50.79474704146818, "lon": -35.44170347709584, "alt_km": 387.9324048435901, "timestamp": "2025-12-26T23:26:40.955679+00:00", "meta": {"OBJECT_NAME": "E-KAGAKU-1", "OBJECT_ID": "1998-067XQ", "EPOCH": "2025-12-26T11:34:38.215200", "MEAN_MOTION": 15.61326456, "ECCENTRICITY": 0.00014737, "INCLINATION": 51.6304, "RA_OF_ASC_NODE": 70.8185, "ARG_OF_PERICENTER": 333.5123, "MEAN_ANOMALY": 26.5795, "EPHEMERIS_TYPE": 0, "CLASSIFICATION_TYPE": "U", "NORAD_CAT_ID": 65943, "ELEMENT_SET_NO": 999, "REV_AT_EPOCH": 1200, "BSTAR": 0.0007949653, "MEAN_MOTION_DOT": 0.00069021, "MEAN_MOTION_DDOT": 0}, "tle": {"line1": "1 65943U 98067XQ  25360.48238675  .00069021  00000+0  79497-3 0  9992", "line2": "2 65943  51.6304  70.8185 0001473 333.5123  26.5795 15.61326456 12008"}}, "geometry": {"type": "Point", "coordinates": [-35.44170347709584, -50.79474704146818]}}]}